{"type": "FeatureCollection", "features": [{"type": "Feature", "properties": {"state": "Kano", "lga": "Ajingi"}, "geometry": {"type": "Polygon", "coordinates": [[[9.2051, 11.9508], [9.2101, 11.9059], [9.1922, 11.8686], [9.0842, 11.8646], [9.0465, 11.841], [8.9744, 11.847], [8.934, 11.8906], [8.916, 11.8948], [8.8927, 11.8819], [8.8684, 11.9131], [8.8315, 11.8835], [8.8355, 11.9608], [8.8297, 11.9623], [8.8728, 11.9856], [8.9007, 12.0245], [8.9158, 12.0258], [8.9194, 12.0339], [8.9772, 12.0613], [9.0279, 12.0653], [9.037, 12.0424], [9.0372, 12.0015], [9.0594, 11.9975], [9.0888, 12.0004], [9.1701, 12.0592], [9.2051, 11.9508]]]}}, {"type": "Feature", "properties": {"state": "Kano", "lga": "Albasu"}, "geometry": {"type": "Polygon", "coordinates": [[[9.1698, 11.7038], [9.2124, 11.7072], [9.2301, 11.6914], [9.262, 11.6159], [9.3144, 11.5721], [9.2882, 11.5639], [9.2229, 11.5705], [9.2163, 11.59], [9.1772, 11.5835], [9.1706, 11.6031], [9.138, 11.6031], [9.076, 11.5443], [9.0401, 11.5443], [8.9563, 11.5685], [8.9008, 11.6079], [8.9089, 11.6387], [8.9249, 11.6529], [8.927, 11.6723], [8.9373, 11.6812], [8.9571, 11.6778], [8.9658, 11.6612], [9.0422, 11.6765], [9.1099, 11.6736], [9.1548, 11.6885], [9.1698, 11.7038]]]}}, {"type": "Feature", "properties": {"state": "Kano", "lga": "Bagwai"}, "geometry": {"type": "Polygon", "coordinates": [[[8.1048, 12.1896], [8.1689, 12.1667], [8.1863, 12.1162], [8.2202, 12.0887], [8.2265, 12.0503], [8.2262, 12.0279], [8.2053, 11.9975], [8.1357, 11.9651], [8.1017, 11.9819], [8.0912, 12.0401], [8.0749, 12.0526], [7.9969, 12.0519], [7.9981, 12.1334], [8.0061, 12.1278], [8.0331, 12.1561], [8.0607, 12.1462], [8.0747, 12.1522], [8.089, 12.1798], [8.1048, 12.1896]]]}}, {"type": "Feature", "properties": {"state": "Kano", "lga": "Bebeji"}, "geometry": {"type": "Polygon", "coordinates": [[[8.2814, 11.704], [8.3042, 11.6321], [8.3265, 11.6124], [8.3412, 11.5849], [8.3988, 11.5604], [8.4073, 11.5159], [8.4202, 11.5058], [8.4085, 11.4708], [8.3924, 11.4522], [8.3989, 11.413], [8.386, 11.3893], [8.3063, 11.3199], [8.2546, 11.3213], [8.2111, 11.3409], [8.1735, 11.4351], [8.1919, 11.5389], [8.1914, 11.5817], [8.2147, 11.6495], [8.2478, 11.7032], [8.2645, 11.7147], [8.2814, 11.704]]]}}, {"type": "Feature", "properties": {"state": "Kano", "lga": "Bichi"}, "geometry": {"type": "Polygon", "coordinates": [[[8.2021, 12.1569], [8.1048, 12.1896], [8.0877, 12.222], [8.0505, 12.3272], [8.074, 12.3491], [8.1212, 12.3439], [8.3237, 12.2603], [8.3384, 12.2787], [8.3643, 12.2841], [8.4007, 12.3097], [8.4134, 12.3389], [8.4239, 12.3365], [8.4332, 12.3095], [8.4643, 12.2827], [8.4654, 12.2468], [8.4451, 12.2101], [8.4185, 12.2339], [8.4101, 12.2304], [8.3362, 12.1619], [8.3012, 12.1596], [8.2606, 12.1268], [8.2464, 12.125], [8.2021, 12.1569]]]}}, {"type": "Feature", "properties": {"state": "Kano", "lga": "Bunkure"}, "geometry": {"type": "Polygon", "coordinates": [[[8.6182, 11.7289], [8.6375, 11.6626], [8.6546, 11.6526], [8.6655, 11.6606], [8.6847, 11.7347], [8.6991, 11.7489], [8.7129, 11.7472], [8.7269, 11.7265], [8.7238, 11.6174], [8.5899, 11.5984], [8.5717, 11.5913], [8.5591, 11.5667], [8.5446, 11.5583], [8.538, 11.5924], [8.4617, 11.5654], [8.4427, 11.6345], [8.4131, 11.6546], [8.4247, 11.6905], [8.464, 11.7024], [8.4967, 11.7453], [8.5446, 11.7678], [8.5626, 11.7638], [8.5943, 11.7246], [8.6067, 11.7215], [8.6182, 11.7289]]]}}, {"type": "Feature", "properties": {"state": "Kano", "lga": "Dala"}, "geometry": {"type": "Polygon", "coordinates": [[[8.5016, 11.9889], [8.4302, 11.9749], [8.4291, 11.9802], [8.4555, 12.0188], [8.4823, 12.029], [8.486, 11.9913], [8.5016, 11.9889]]]}}, {"type": "Feature", "properties": {"state": "Kano", "lga": "Dambatta"}, "geometry": {"type": "Polygon", "coordinates": [[[8.552, 12.5772], [8.6818, 12.5393], [8.6848, 12.4513], [8.7031, 12.4294], [8.7648, 12.3956], [8.7824, 12.3469], [8.7733, 12.3149], [8.7943, 12.2904], [8.752, 12.2656], [8.7167, 12.2596], [8.7011, 12.2621], [8.6426, 12.3017], [8.629, 12.2789], [8.6292, 12.2581], [8.6064, 12.2374], [8.5803, 12.2299], [8.5711, 12.2321], [8.5596, 12.2782], [8.5159, 12.3451], [8.4898, 12.36], [8.4667, 12.3447], [8.4653, 12.3551], [8.4805, 12.4513], [8.5169, 12.4654], [8.5321, 12.482], [8.5346, 12.4979], [8.5179, 12.512], [8.5035, 12.5404], [8.5188, 12.5495], [8.5277, 12.5759], [8.552, 12.5772]]]}}, {"type": "Feature", "properties": {"state": "Kano", "lga": "DawakinK"}, "geometry": {"type": "Polygon", "coordinates": [[[8.7269, 11.7265], [8.7129, 11.7472], [8.6941, 11.7461], [8.6705, 11.6962], [8.6641, 11.6578], [8.6475, 11.6539], [8.634, 11.6709], [8.6309, 11.6963], [8.593, 11.7876], [8.578, 11.7979], [8.5188, 11.8102], [8.492, 11.8326], [8.4916, 11.8414], [8.5233, 11.8579], [8.5791, 11.8674], [8.5992, 11.8868], [8.6047, 11.9158], [8.6721, 11.8687], [8.7168, 11.8174], [8.7969, 11.7929], [8.7676, 11.7523], [8.7269, 11.7265]]]}}, {"type": "Feature", "properties": {"state": "Kano", "lga": "DawakinT"}, "geometry": {"type": "Polygon", "coordinates": [[[8.2162, 12.0944], [8.1863, 12.1162], [8.1689, 12.1667], [8.2021, 12.1569], [8.2464, 12.125], [8.2606, 12.1268], [8.3012, 12.1596], [8.3362, 12.1619], [8.4101, 12.2304], [8.4185, 12.2339], [8.4451, 12.2101], [8.4654, 12.2471], [8.484, 12.2475], [8.4929, 12.2384], [8.4874, 12.1158], [8.445, 12.0862], [8.3999, 12.0247], [8.4066, 11.9744], [8.27, 12.0767], [8.2162, 12.0944]]]}}, {"type": "Feature", "properties": {"state": "Kano", "lga": "Doguwa"}, "geometry": {"type": "Polygon", "coordinates": [[[8.7318, 10.9627], [8.7445, 10.8128], [8.8069, 10.7435], [8.8193, 10.717], [8.8206, 10.685], [8.7991, 10.6234], [8.7572, 10.558], [8.7243, 10.5444], [8.6564, 10.566], [8.6181, 10.6154], [8.5047, 10.6309], [8.4874, 10.6481], [8.4777, 10.6813], [8.4867, 10.6938], [8.544, 10.7092], [8.5557, 10.7268], [8.559, 10.7544], [8.5407, 10.8746], [8.5721, 10.9685], [8.566, 11.0303], [8.5227, 11.1138], [8.4872, 11.1468], [8.5636, 11.2139], [8.6091, 11.2339], [8.6207, 11.219], [8.6307, 11.1055], [8.6673, 11.0736], [8.6778, 11.0143], [8.6956, 10.9983], [8.7102, 10.9957], [8.7318, 10.9627]]]}}, {"type": "Feature", "properties": {"state": "Kano", "lga": "Fagge"}, "geometry": {"type": "Polygon", "coordinates": [[[8.5499, 12.0141], [8.5777, 12.0009], [8.5776, 11.9663], [8.5381, 11.9595], [8.5275, 11.9719], [8.5308, 11.9965], [8.5499, 12.0141]]]}}, {"type": "Feature", "properties": {"state": "Kano", "lga": "Gabasawa"}, "geometry": {"type": "Polygon", "coordinates": [[[8.7943, 12.2904], [8.9209, 12.2683], [8.9357, 12.2555], [8.9488, 12.2087], [8.9474, 12.1196], [8.9284, 12.0976], [8.9198, 12.0702], [8.9464, 12.0586], [8.9464, 12.0423], [8.9007, 12.0245], [8.8728, 11.9856], [8.8537, 11.9804], [8.8355, 11.9611], [8.8069, 11.9749], [8.8048, 12.0028], [8.8245, 11.9986], [8.796, 12.066], [8.7837, 12.0677], [8.7607, 12.1019], [8.7591, 12.1293], [8.7299, 12.1425], [8.7023, 12.1424], [8.6982, 12.1593], [8.7011, 12.2621], [8.752, 12.2656], [8.7943, 12.2904]]]}}, {"type": "Feature", "properties": {"state": "Kano", "lga": "Garko"}, "geometry": {"type": "Polygon", "coordinates": [[[8.9008, 11.6079], [8.9563, 11.5685], [8.9944, 11.5607], [9.0009, 11.5019], [8.9662, 11.5039], [8.9425, 11.5399], [8.915, 11.5602], [8.8627, 11.5463], [8.8418, 11.5175], [8.8426, 11.4889], [8.8253, 11.4748], [8.807, 11.4174], [8.7894, 11.3992], [8.7682, 11.396], [8.7569, 11.3816], [8.7212, 11.4514], [8.7282, 11.6916], [8.7401, 11.7003], [8.7897, 11.6627], [8.8139, 11.6617], [8.8309, 11.6384], [8.8362, 11.658], [8.8456, 11.6634], [8.8631, 11.5978], [8.9008, 11.6079]]]}}, {"type": "Feature", "properties": {"state": "Kano", "lga": "Garum Mallam"}, "geometry": {"type": "Polygon", "coordinates": [[[8.3988, 11.5604], [8.339, 11.5872], [8.3265, 11.6124], [8.3042, 11.6321], [8.2861, 11.6799], [8.2814, 11.704], [8.3319, 11.7205], [8.3563, 11.743], [8.3816, 11.7372], [8.3877, 11.7139], [8.4122, 11.715], [8.4312, 11.7003], [8.4131, 11.6546], [8.4427, 11.6345], [8.4589, 11.592], [8.4617, 11.5654], [8.447, 11.5576], [8.3988, 11.5604]]]}}, {"type": "Feature", "properties": {"state": "Kano", "lga": "Gaya"}, "geometry": {"type": "Polygon", "coordinates": [[[9.1922, 11.8686], [9.1898, 11.844], [9.1355, 11.7693], [9.1276, 11.736], [9.1325, 11.7029], [9.1698, 11.7038], [9.1548, 11.6885], [9.1212, 11.6749], [9.0422, 11.6765], [8.9658, 11.6612], [8.9537, 11.6798], [8.9373, 11.6812], [8.9278, 11.6733], [8.8483, 11.7789], [8.8692, 11.8179], [8.9088, 11.8608], [8.9106, 11.8728], [8.9001, 11.8827], [8.916, 11.8948], [8.9406, 11.8863], [8.9744, 11.847], [9.0039, 11.8424], [9.0465, 11.841], [9.0699, 11.8585], [9.0973, 11.8666], [9.1922, 11.8686]]]}}, {"type": "Feature", "properties": {"state": "Kano", "lga": "Gezawa"}, "geometry": {"type": "Polygon", "coordinates": [[[8.5776, 11.9663], [8.5777, 12.0009], [8.5661, 12.0114], [8.6312, 12.0434], [8.6395, 12.093], [8.7004, 12.1461], [8.7591, 12.1293], [8.7607, 12.1019], [8.7837, 12.0677], [8.796, 12.066], [8.8245, 11.9986], [8.8118, 12.0049], [8.8025, 11.9995], [8.8129, 11.9666], [8.783, 11.9638], [8.7509, 11.9432], [8.7353, 11.9456], [8.6951, 11.9769], [8.6625, 11.9723], [8.6202, 11.951], [8.5776, 11.9663]]]}}, {"type": "Feature", "properties": {"state": "Kano", "lga": "Gwale"}, "geometry": {"type": "Polygon", "coordinates": [[[8.4302, 11.9749], [8.5016, 11.9889], [8.5118, 11.9884], [8.5031, 11.9648], [8.434, 11.9468], [8.4302, 11.9749]]]}}, {"type": "Feature", "properties": {"state": "Kano", "lga": "Gwarzo"}, "geometry": {"type": "Polygon", "coordinates": [[[8.0251, 11.9323], [8.0972, 11.9189], [8.1063, 11.9047], [8.0959, 11.8926], [8.0737, 11.887], [8.0549, 11.8573], [8.0066, 11.841], [7.9881, 11.8246], [7.9582, 11.818], [7.9133, 11.7783], [7.883, 11.783], [7.8577, 11.7992], [7.862, 11.8417], [7.8282, 11.9147], [7.8376, 11.9871], [7.8628, 11.9834], [7.9003, 11.949], [7.91, 11.9293], [7.9816, 11.9528], [8.0251, 11.9323]]]}}, {"type": "Feature", "properties": {"state": "Kano", "lga": "Kabo"}, "geometry": {"type": "Polygon", "coordinates": [[[8.1336, 11.9655], [8.1594, 11.9528], [8.1964, 11.905], [8.2101, 11.9056], [8.2286, 11.922], [8.2538, 11.9136], [8.2643, 11.8748], [8.2562, 11.8427], [8.2939, 11.8284], [8.2477, 11.7761], [8.2201, 11.7795], [8.1894, 11.7673], [8.1742, 11.7899], [8.1413, 11.7976], [8.1287, 11.8121], [8.1289, 11.829], [8.093, 11.8464], [8.0785, 11.8645], [8.0789, 11.8873], [8.1007, 11.8975], [8.1072, 11.9079], [8.1019, 11.9166], [8.0251, 11.9323], [8.0535, 11.9562], [8.105, 11.9482], [8.1283, 11.9564], [8.1336, 11.9655]]]}}, {"type": "Feature", "properties": {"state": "Kano", "lga": "Kano"}, "geometry": {"type": "Polygon", "coordinates": [[[8.434, 11.9468], [8.5034, 11.9656], [8.5095, 11.9588], [8.5048, 11.9265], [8.4725, 11.9202], [8.4485, 11.9272], [8.434, 11.9468]]]}}, {"type": "Feature", "properties": {"state": "Kano", "lga": "Karaye"}, "geometry": {"type": "Polygon", "coordinates": [[[7.8577, 11.7992], [7.883, 11.783], [7.9133, 11.7783], [7.9582, 11.818], [7.9881, 11.8246], [8.0066, 11.841], [8.0549, 11.8573], [8.0753, 11.8877], [8.0819, 11.8569], [8.1289, 11.829], [8.1305, 11.8089], [8.1533, 11.7936], [8.0895, 11.7552], [8.0623, 11.7481], [8.0464, 11.6675], [8.026, 11.6546], [7.9992, 11.6678], [7.972, 11.6317], [7.9679, 11.6399], [7.9179, 11.6349], [7.9058, 11.6449], [7.8512, 11.7772], [7.8577, 11.7992]]]}}, {"type": "Feature", "properties": {"state": "Kano", "lga": "Kibiya"}, "geometry": {"type": "Polygon", "coordinates": [[[8.6286, 11.6036], [8.7238, 11.6174], [8.7209, 11.4572], [8.6791, 11.4083], [8.569, 11.3349], [8.5706, 11.3601], [8.5541, 11.381], [8.5731, 11.4079], [8.557, 11.4605], [8.5604, 11.4894], [8.5666, 11.5063], [8.5951, 11.5216], [8.6087, 11.5388], [8.6102, 11.5864], [8.6286, 11.6036]]]}}, {"type": "Feature", "properties": {"state": "Kano", "lga": "Kiru"}, "geometry": {"type": "Polygon", "coordinates": [[[8.2027, 11.3045], [8.1377, 11.3357], [8.1126, 11.3761], [8.1123, 11.3956], [8.1463, 11.4597], [8.1412, 11.4796], [8.1032, 11.4955], [8.0299, 11.4758], [8.0279, 11.5198], [7.9981, 11.5385], [7.9832, 11.5819], [7.9673, 11.5987], [7.972, 11.6317], [7.9811, 11.6362], [7.9883, 11.66], [8.0015, 11.6676], [8.026, 11.6546], [8.0464, 11.6675], [8.0623, 11.7481], [8.0895, 11.7552], [8.1533, 11.7936], [8.1742, 11.7899], [8.1894, 11.7673], [8.2201, 11.7795], [8.2454, 11.7769], [8.2582, 11.7236], [8.256, 11.709], [8.2219, 11.6648], [8.1914, 11.5817], [8.1919, 11.5389], [8.1744, 11.4538], [8.1779, 11.4124], [8.2142, 11.3386], [8.2546, 11.3213], [8.3082, 11.3188], [8.2948, 11.3067], [8.2649, 11.3006], [8.2342, 11.3087], [8.2027, 11.3045]]]}}, {"type": "Feature", "properties": {"state": "Kano", "lga": "Kumbotso"}, "geometry": {"type": "Polygon", "coordinates": [[[8.6047, 11.9158], [8.5992, 11.8868], [8.5791, 11.8674], [8.536, 11.8591], [8.5014, 11.8718], [8.4391, 11.8716], [8.411, 11.8876], [8.3943, 11.9132], [8.3809, 11.9194], [8.4048, 11.9609], [8.4327, 11.9593], [8.4343, 11.944], [8.4638, 11.9194], [8.5378, 11.9338], [8.5671, 11.9471], [8.6047, 11.9158]]]}}, {"type": "Feature", "properties": {"state": "Kano", "lga": "Kunchi"}, "geometry": {"type": "Polygon", "coordinates": [[[8.2828, 12.5696], [8.3395, 12.47], [8.3411, 12.4389], [8.3625, 12.4243], [8.3761, 12.3836], [8.4135, 12.341], [8.4007, 12.3097], [8.3643, 12.2841], [8.3384, 12.2787], [8.3237, 12.2603], [8.1212, 12.3439], [8.074, 12.3491], [8.0668, 12.3707], [8.1073, 12.39], [8.1346, 12.4129], [8.1527, 12.4826], [8.1874, 12.5557], [8.208, 12.564], [8.2828, 12.5696]]]}}, {"type": "Feature", "properties": {"state": "Kano", "lga": "Kura"}, "geometry": {"type": "Polygon", "coordinates": [[[8.6182, 11.7289], [8.6067, 11.7215], [8.5943, 11.7246], [8.5626, 11.7638], [8.5446, 11.7678], [8.4967, 11.7453], [8.464, 11.7024], [8.4339, 11.6955], [8.4168, 11.7134], [8.3877, 11.7139], [8.3816, 11.7372], [8.3563, 11.743], [8.3704, 11.7823], [8.4042, 11.8209], [8.4888, 11.8386], [8.5188, 11.8102], [8.578, 11.7979], [8.593, 11.7876], [8.6182, 11.7289]]]}}, {"type": "Feature", "properties": {"state": "Kano", "lga": "Madobi"}, "geometry": {"type": "Polygon", "coordinates": [[[8.2814, 11.704], [8.2661, 11.7147], [8.256, 11.709], [8.2493, 11.7822], [8.3832, 11.907], [8.3832, 11.9165], [8.3943, 11.9132], [8.411, 11.8876], [8.4391, 11.8716], [8.5014, 11.8718], [8.536, 11.8591], [8.491, 11.8384], [8.4147, 11.8277], [8.3704, 11.7823], [8.3561, 11.7417], [8.3426, 11.7284], [8.2814, 11.704]]]}}, {"type": "Feature", "properties": {"state": "Kano", "lga": "Makoda"}, "geometry": {"type": "Polygon", "coordinates": [[[8.3986, 12.5196], [8.4911, 12.5717], [8.5277, 12.5759], [8.5188, 12.5495], [8.5035, 12.5404], [8.5179, 12.512], [8.5346, 12.4979], [8.5321, 12.482], [8.5169, 12.4654], [8.4805, 12.4513], [8.4653, 12.3551], [8.4667, 12.3447], [8.4898, 12.36], [8.5159, 12.3451], [8.5651, 12.2643], [8.575, 12.2312], [8.5618, 12.2244], [8.5509, 12.2281], [8.5432, 12.2621], [8.5272, 12.255], [8.5207, 12.2379], [8.4962, 12.229], [8.484, 12.2475], [8.4654, 12.2471], [8.4643, 12.2827], [8.4332, 12.3095], [8.4239, 12.3365], [8.4129, 12.339], [8.4, 12.3629], [8.3816, 12.3766], [8.3635, 12.4098], [8.3625, 12.4243], [8.3886, 12.4784], [8.3986, 12.5196]]]}}, {"type": "Feature", "properties": {"state": "Kano", "lga": "Minjibir"}, "geometry": {"type": "Polygon", "coordinates": [[[8.553, 12.224], [8.6064, 12.2374], [8.6292, 12.2581], [8.629, 12.2789], [8.6426, 12.3017], [8.7011, 12.2621], [8.7004, 12.1461], [8.6395, 12.093], [8.6302, 12.0735], [8.5553, 12.0654], [8.5341, 12.077], [8.5252, 12.0983], [8.4875, 12.1172], [8.4963, 12.2292], [8.5207, 12.2379], [8.5379, 12.2623], [8.5491, 12.2505], [8.553, 12.224]]]}}, {"type": "Feature", "properties": {"state": "Kano", "lga": "Nassaraw"}, "geometry": {"type": "Polygon", "coordinates": [[[8.5269, 11.9881], [8.486, 11.9913], [8.4801, 12.0179], [8.487, 12.0291], [8.5178, 12.0117], [8.5499, 12.0141], [8.5269, 11.9881]]]}}, {"type": "Feature", "properties": {"state": "Kano", "lga": "Rano"}, "geometry": {"type": "Polygon", "coordinates": [[[8.3989, 11.413], [8.3924, 11.4522], [8.4085, 11.4708], [8.4202, 11.5058], [8.4073, 11.5159], [8.3988, 11.5604], [8.447, 11.5576], [8.538, 11.5924], [8.5446, 11.5583], [8.5591, 11.5667], [8.5717, 11.5913], [8.6286, 11.6036], [8.6102, 11.5864], [8.6087, 11.5388], [8.5951, 11.5216], [8.5666, 11.5063], [8.5604, 11.4894], [8.557, 11.4605], [8.5731, 11.4079], [8.5541, 11.381], [8.5706, 11.3601], [8.5632, 11.3298], [8.5268, 11.3253], [8.5002, 11.3338], [8.4164, 11.3813], [8.3989, 11.413]]]}}, {"type": "Feature", "properties": {"state": "Kano", "lga": "RiminGad"}, "geometry": {"type": "Polygon", "coordinates": [[[8.1357, 11.9651], [8.1805, 11.9835], [8.2159, 12.0083], [8.249, 12.0045], [8.2734, 11.9832], [8.3203, 11.9138], [8.383, 11.9162], [8.3844, 11.9103], [8.2937, 11.8285], [8.2562, 11.8427], [8.2643, 11.8748], [8.2489, 11.919], [8.2286, 11.922], [8.2101, 11.9056], [8.1964, 11.905], [8.1594, 11.9528], [8.1357, 11.9651]]]}}, {"type": "Feature", "properties": {"state": "Kano", "lga": "Rogo"}, "geometry": {"type": "Polygon", "coordinates": [[[8.0299, 11.4758], [8.0107, 11.4759], [7.933, 11.4306], [7.8655, 11.3696], [7.8261, 11.3589], [7.7763, 11.3592], [7.7077, 11.4133], [7.6876, 11.4954], [7.712, 11.5379], [7.7132, 11.5732], [7.7426, 11.5992], [7.8033, 11.6156], [7.8428, 11.6426], [7.8866, 11.6438], [7.9012, 11.6519], [7.9179, 11.6349], [7.9712, 11.6379], [7.9673, 11.5987], [7.9832, 11.5819], [7.9981, 11.5385], [8.0279, 11.5198], [8.0299, 11.4758]]]}}, {"type": "Feature", "properties": {"state": "Kano", "lga": "Shanono"}, "geometry": {"type": "Polygon", "coordinates": [[[7.9981, 12.1334], [7.9969, 12.0519], [8.0749, 12.0526], [8.0912, 12.0401], [8.1017, 11.9819], [8.1338, 11.9606], [8.105, 11.9482], [8.0535, 11.9562], [8.0176, 11.9304], [7.9816, 11.9528], [7.91, 11.9293], [7.9003, 11.949], [7.8628, 11.9834], [7.8376, 11.9871], [7.8403, 12.1053], [7.8308, 12.2111], [7.8382, 12.2629], [7.8593, 12.2823], [7.911, 12.2038], [7.934, 12.195], [7.951, 12.1717], [7.9825, 12.158], [7.9981, 12.1334]]]}}, {"type": "Feature", "properties": {"state": "Kano", "lga": "Sumaila"}, "geometry": {"type": "Polygon", "coordinates": [[[9.08, 11.3231], [9.0314, 11.2966], [9.0206, 11.279], [8.944, 11.2126], [8.8569, 11.0957], [8.7716, 11.0865], [8.7399, 11.1535], [8.6936, 11.1987], [8.6832, 11.2199], [8.6949, 11.2602], [8.7292, 11.2882], [8.7407, 11.3094], [8.7569, 11.3816], [8.7682, 11.396], [8.7894, 11.3992], [8.807, 11.4174], [8.8253, 11.4748], [8.8426, 11.4889], [8.8418, 11.5175], [8.8503, 11.534], [8.8627, 11.5463], [8.8976, 11.5591], [8.9254, 11.5539], [8.9634, 11.5129], [8.9698, 11.4843], [8.9578, 11.4791], [8.9483, 11.4543], [8.9621, 11.4316], [8.9685, 11.4303], [8.981, 11.4531], [8.9943, 11.4589], [8.9987, 11.4118], [9.0422, 11.3959], [9.08, 11.3231]]]}}, {"type": "Feature", "properties": {"state": "Kano", "lga": "Takai"}, "geometry": {"type": "Polygon", "coordinates": [[[9.2247, 11.3425], [9.1356, 11.3078], [9.1172, 11.3094], [9.0988, 11.3263], [9.08, 11.3231], [9.0422, 11.3959], [8.9987, 11.4118], [8.9971, 11.4563], [8.981, 11.4531], [8.9658, 11.4298], [8.9483, 11.4543], [8.9578, 11.4791], [8.9698, 11.4843], [8.9662, 11.5039], [9.0009, 11.5019], [8.9952, 11.5533], [9.076, 11.5443], [9.138, 11.6031], [9.1706, 11.6031], [9.1772, 11.5835], [9.2163, 11.59], [9.2229, 11.5705], [9.2882, 11.5639], [9.3144, 11.5721], [9.3416, 11.5654], [9.3559, 11.547], [9.241, 11.4374], [9.2234, 11.3782], [9.2247, 11.3425]]]}}, {"type": "Feature", "properties": {"state": "Kano", "lga": "Tarauni"}, "geometry": {"type": "Polygon", "coordinates": [[[8.5269, 11.9881], [8.5319, 11.9636], [8.5622, 11.9612], [8.5671, 11.9471], [8.5048, 11.9265], [8.5095, 11.9588], [8.5034, 11.9656], [8.5118, 11.9884], [8.5269, 11.9881]]]}}, {"type": "Feature", "properties": {"state": "Kano", "lga": "Tofa"}, "geometry": {"type": "Polygon", "coordinates": [[[8.2159, 12.0083], [8.2285, 12.0349], [8.2162, 12.0944], [8.27, 12.0767], [8.4086, 11.9764], [8.383, 11.9162], [8.3203, 11.9138], [8.2734, 11.9832], [8.249, 12.0045], [8.2159, 12.0083]]]}}, {"type": "Feature", "properties": {"state": "Kano", "lga": "Tsanyawa"}, "geometry": {"type": "Polygon", "coordinates": [[[8.1048, 12.1896], [8.089, 12.1798], [8.0747, 12.1522], [8.0607, 12.1462], [8.0331, 12.1561], [8.0061, 12.1278], [7.9825, 12.158], [7.951, 12.1717], [7.934, 12.195], [7.911, 12.2038], [7.8593, 12.2823], [7.9391, 12.3309], [8.0668, 12.3707], [8.0743, 12.3484], [8.0505, 12.3272], [8.1048, 12.1896]]]}}, {"type": "Feature", "properties": {"state": "Kano", "lga": "Tundun Wada"}, "geometry": {"type": "Polygon", "coordinates": [[[8.7716, 11.0865], [8.7501, 11.0568], [8.7318, 10.9627], [8.7102, 10.9957], [8.6956, 10.9983], [8.6778, 11.0143], [8.6673, 11.0736], [8.6307, 11.1055], [8.6207, 11.219], [8.6091, 11.2339], [8.5636, 11.2139], [8.4871, 11.1466], [8.4211, 11.2034], [8.3119, 11.2212], [8.2551, 11.287], [8.2027, 11.3045], [8.2342, 11.3087], [8.2649, 11.3006], [8.2989, 11.3086], [8.3149, 11.33], [8.3624, 11.3637], [8.3989, 11.413], [8.4164, 11.3813], [8.5002, 11.3338], [8.5268, 11.3253], [8.5632, 11.3298], [8.6791, 11.4083], [8.7209, 11.4572], [8.7581, 11.3797], [8.7555, 11.3594], [8.7375, 11.3024], [8.6949, 11.2602], [8.6832, 11.2199], [8.6936, 11.1987], [8.7399, 11.1535], [8.7716, 11.0865]]]}}, {"type": "Feature", "properties": {"state": "Kano", "lga": "Ungogo"}, "geometry": {"type": "Polygon", "coordinates": [[[8.487, 12.0291], [8.4555, 12.0188], [8.4412, 12.0046], [8.4291, 11.9802], [8.4327, 11.9593], [8.4048, 11.9609], [8.4096, 11.9804], [8.3999, 12.0247], [8.445, 12.0862], [8.4875, 12.1172], [8.5252, 12.0983], [8.5341, 12.077], [8.5553, 12.0654], [8.6316, 12.075], [8.6312, 12.0434], [8.5737, 12.0127], [8.5178, 12.0117], [8.487, 12.0291]]]}}, {"type": "Feature", "properties": {"state": "Kano", "lga": "Warawa"}, "geometry": {"type": "Polygon", "coordinates": [[[8.7921, 11.9662], [8.8355, 11.9608], [8.8329, 11.8601], [8.8082, 11.8344], [8.7969, 11.7929], [8.7168, 11.8174], [8.6721, 11.8687], [8.6358, 11.8901], [8.5604, 11.9548], [8.5814, 11.9665], [8.6202, 11.951], [8.6795, 11.9775], [8.7055, 11.9725], [8.7353, 11.9456], [8.7509, 11.9432], [8.7921, 11.9662]]]}}, {"type": "Feature", "properties": {"state": "Kano", "lga": "Wudil"}, "geometry": {"type": "Polygon", "coordinates": [[[8.8315, 11.8835], [8.8684, 11.9131], [8.8899, 11.8837], [8.9113, 11.8701], [8.849, 11.7847], [8.9293, 11.6631], [8.9089, 11.6387], [8.9008, 11.6079], [8.875, 11.5959], [8.8631, 11.5978], [8.8456, 11.6634], [8.8362, 11.658], [8.8309, 11.6384], [8.8139, 11.6617], [8.7897, 11.6627], [8.7401, 11.7003], [8.7262, 11.6882], [8.7243, 11.7223], [8.7676, 11.7523], [8.7896, 11.78], [8.8082, 11.8344], [8.8329, 11.8601], [8.8315, 11.8835]]]}}]}